{
  "type": "FeatureCollection",
  "features": [
    {
      "type": "Feature",
      "properties": {
        "norad_id": 56564,
        "name": "BEIDOU-3 G4 (C62)",
        "group": "gnss",
        "lat": -0.8356487780959138,
        "lon": -134.28459331781826,
        "alt_km": 35777.256636375874,
        "timestamp": "2025-12-02T23:34:15.759628+00:00",
        "meta_object_name": "BEIDOU-3 G4 (C62)",
        "meta_object_id": "2023-066A",
        "meta_epoch": "2025-12-02T10:54:38.635776",
        "meta_mean_motion": 1.00271041,
        "meta_eccentricity": 0.0003393,
        "meta_inclination": 0.8391,
        "meta_ra_of_asc_node": 301.148,
        "meta_arg_of_pericenter": 234.296,
        "meta_mean_anomaly": 219.8462,
        "meta_ephemeris_type": 0,
        "meta_classification_type": "U",
        "meta_norad_cat_id": 56564,
        "meta_element_set_no": 999,
        "meta_rev_at_epoch": 942,
        "meta_bstar": 0,
        "meta_mean_motion_dot": -9e-07,
        "meta_mean_motion_ddot": 0,
        "tle_line1": "1 56564U 23066A   25336.45461384 -.00000090  00000+0  00000+0 0  9995",
        "tle_line2": "2 56564   0.8391 301.1480 0003393 234.2960 219.8462  1.00271041  9423"
      },
      "geometry": {
        "type": "Point",
        "coordinates": [
          -134.28459331781826,
          -0.8356487780959138
        ]
      }
    },
    {
      "type": "Feature",
      "properties": {
        "norad_id": 56759,
        "name": "NVS-01 (IRNSS-1J)",
        "group": "gnss",
        "lat": -2.2388345592699865,
        "lon": -164.90006034174925,
        "alt_km": 35770.85100858068,
        "timestamp": "2025-12-02T23:34:15.759640+00:00",
        "meta_object_name": "NVS-01 (IRNSS-1J)",
        "meta_object_id": "2023-076A",
        "meta_epoch": "2025-12-02T07:33:08.345088",
        "meta_mean_motion": 1.00267867,
        "meta_eccentricity": 0.0008558,
        "meta_inclination": 2.6462,
        "meta_ra_of_asc_node": 251.983,
        "meta_arg_of_pericenter": 5.7658,
        "meta_mean_anomaly": 56.5154,
        "meta_ephemeris_type": 0,
        "meta_classification_type": "U",
        "meta_norad_cat_id": 56759,
        "meta_element_set_no": 999,
        "meta_rev_at_epoch": 914,
        "meta_bstar": 0,
        "meta_mean_motion_dot": -3.13e-06,
        "meta_mean_motion_ddot": 0,
        "tle_line1": "1 56759U 23076A   25336.31467992 -.00000313  00000+0  00000+0 0  9996",
        "tle_line2": "2 56759   2.6462 251.9830 0008558   5.7658  56.5154  1.00267867  9146"
      },
      "geometry": {
        "type": "Point",
        "coordinates": [
          -164.90006034174925,
          -2.2388345592699865
        ]
      }
    },
    {
      "type": "Feature",
      "properties": {
        "norad_id": 57517,
        "name": "COSMOS 2569 (703K)",
        "group": "gnss",
        "lat": -64.96172204054221,
        "lon": -19.33001915500483,
        "alt_km": 19112.353250693122,
        "timestamp": "2025-12-02T23:34:15.759651+00:00",
        "meta_object_name": "COSMOS 2569 (703K)",
        "meta_object_id": "2023-114A",
        "meta_epoch": "2025-12-01T05:26:50.828352",
        "meta_mean_motion": 2.13103848,
        "meta_eccentricity": 0.0010073,
        "meta_inclination": 65.188,
        "meta_ra_of_asc_node": 79.3026,
        "meta_arg_of_pericenter": 287.0136,
        "meta_mean_anomaly": 72.876,
        "meta_ephemeris_type": 0,
        "meta_classification_type": "U",
        "meta_norad_cat_id": 57517,
        "meta_element_set_no": 999,
        "meta_rev_at_epoch": 1804,
        "meta_bstar": 0,
        "meta_mean_motion_dot": -1.2e-07,
        "meta_mean_motion_ddot": 0,
        "tle_line1": "1 57517U 23114A   25335.22697718 -.00000012  00000+0  00000+0 0  9998",
        "tle_line2": "2 57517  65.1880  79.3026 0010073 287.0136  72.8760  2.13103848 18043"
      },
      "geometry": {
        "type": "Point",
        "coordinates": [
          -19.33001915500483,
          -64.96172204054221
        ]
      }
    },
    {
      "type": "Feature",
      "properties": {
        "norad_id": 58654,
        "name": "BEIDOU-3 M28 (C50)",
        "group": "gnss",
        "lat": 31.76879426113009,
        "lon": -136.1593991052289,
        "alt_km": 21527.467247399567,
        "timestamp": "2025-12-02T23:34:15.759662+00:00",
        "meta_object_name": "BEIDOU-3 M28 (C50)",
        "meta_object_id": "2023-207A",
        "meta_epoch": "2025-12-02T05:39:36.184608",
        "meta_mean_motion": 1.86229563,
        "meta_eccentricity": 0.0001988,
        "meta_inclination": 55.5754,
        "meta_ra_of_asc_node": 68.9573,
        "meta_arg_of_pericenter": 264.8657,
        "meta_mean_anomaly": 95.1143,
        "meta_ephemeris_type": 0,
        "meta_classification_type": "U",
        "meta_norad_cat_id": 58654,
        "meta_element_set_no": 999,
        "meta_rev_at_epoch": 1317,
        "meta_bstar": 0,
        "meta_mean_motion_dot": -4.7e-07,
        "meta_mean_motion_ddot": 0,
        "tle_line1": "1 58654U 23207A   25336.23583547 -.00000047  00000+0  00000+0 0  9998",
        "tle_line2": "2 58654  55.5754  68.9573 0001988 264.8657  95.1143  1.86229563 13170"
      },
      "geometry": {
        "type": "Point",
        "coordinates": [
          -136.1593991052289,
          31.76879426113009
        ]
      }
    },
    {
      "type": "Feature",
      "properties": {
        "norad_id": 58655,
        "name": "BEIDOU-3 M26 (C48)",
        "group": "gnss",
        "lat": -55.14911113611658,
        "lon": -10.600238679601327,
        "alt_km": 21525.538408911463,
        "timestamp": "2025-12-02T23:34:15.759675+00:00",
        "meta_object_name": "BEIDOU-3 M26 (C48)",
        "meta_object_id": "2023-207B",
        "meta_epoch": "2025-11-29T21:15:29.587968",
        "meta_mean_motion": 1.86231123,
        "meta_eccentricity": 0.00033719,
        "meta_inclination": 55.5753,
        "meta_ra_of_asc_node": 69.0231,
        "meta_arg_of_pericenter": 249.3814,
        "meta_mean_anomaly": 110.59,
        "meta_ephemeris_type": 0,
        "meta_classification_type": "U",
        "meta_norad_cat_id": 58655,
        "meta_element_set_no": 999,
        "meta_rev_at_epoch": 1311,
        "meta_bstar": 0,
        "meta_mean_motion_dot": -3.1e-07,
        "meta_mean_motion_ddot": 0,
        "tle_line1": "1 58655U 23207B   25333.88575912 -.00000031  00000+0  00000+0 0  9997",
        "tle_line2": "2 58655  55.5753  69.0231 0003371 249.3814 110.5900  1.86231123 13116"
      },
      "geometry": {
        "type": "Point",
        "coordinates": [
          -10.600238679601327,
          -55.14911113611658
        ]
      }
    },
    {
      "type": "Feature",
      "properties": {
        "norad_id": 59598,
        "name": "GSAT0225 (GALILEO 29)",
        "group": "gnss",
        "lat": 38.60823252002103,
        "lon": 140.55606349449667,
        "alt_km": 23220.79727730146,
        "timestamp": "2025-12-02T23:34:15.759687+00:00",
        "meta_object_name": "GSAT0225 (GALILEO 29)",
        "meta_object_id": "2024-079A",
        "meta_epoch": "2025-12-01T03:29:20.871744",
        "meta_mean_motion": 1.70474544,
        "meta_eccentricity": 0.0002155,
        "meta_inclination": 54.9941,
        "meta_ra_of_asc_node": 106.6197,
        "meta_arg_of_pericenter": 171.5653,
        "meta_mean_anomaly": 190.7741,
        "meta_ephemeris_type": 0,
        "meta_classification_type": "U",
        "meta_norad_cat_id": 59598,
        "meta_element_set_no": 999,
        "meta_rev_at_epoch": 994,
        "meta_bstar": 0,
        "meta_mean_motion_dot": 4.1e-07,
        "meta_mean_motion_ddot": 0,
        "tle_line1": "1 59598U 24079A   25335.14538046  .00000041  00000+0  00000+0 0  9990",
        "tle_line2": "2 59598  54.9941 106.6197 0002155 171.5653 190.7741  1.70474544  9948"
      },
      "geometry": {
        "type": "Point",
        "coordinates": [
          140.55606349449667,
          38.60823252002103
        ]
      }
    },
    {
      "type": "Feature",
      "properties": {
        "norad_id": 59600,
        "name": "GSAT0227 (GALILEO 30)",
        "group": "gnss",
        "lat": -46.80536840116032,
        "lon": 58.28606000686681,
        "alt_km": 23237.727355605904,
        "timestamp": "2025-12-02T23:34:15.759698+00:00",
        "meta_object_name": "GSAT0227 (GALILEO 30)",
        "meta_object_id": "2024-079C",
        "meta_epoch": "2025-11-30T03:38:35.461248",
        "meta_mean_motion": 1.70474636,
        "meta_eccentricity": 0.00034867,
        "meta_inclination": 54.9888,
        "meta_ra_of_asc_node": 106.6465,
        "meta_arg_of_pericenter": 113.1426,
        "meta_mean_anomaly": 246.8704,
        "meta_ephemeris_type": 0,
        "meta_classification_type": "U",
        "meta_norad_cat_id": 59600,
        "meta_element_set_no": 999,
        "meta_rev_at_epoch": 997,
        "meta_bstar": 0,
        "meta_mean_motion_dot": 4.8e-07,
        "meta_mean_motion_ddot": 0,
        "tle_line1": "1 59600U 24079C   25334.15179932  .00000048  00000+0  00000+0 0  9996",
        "tle_line2": "2 59600  54.9888 106.6465 0003486 113.1426 246.8704  1.70474636  9975"
      },
      "geometry": {
        "type": "Point",
        "coordinates": [
          58.28606000686681,
          -46.80536840116032
        ]
      }
    }
  ]
}